{
  "type": "FeatureCollection",
  "features": [
    {
      "type": "Feature",
      "properties": {
        "norad_id": 40792,
        "name": "COSMOS 2251 DEB",
        "group": "cosmos-2251-debris",
        "lat": 26.932404613187135,
        "lon": 45.85228116437914,
        "alt_km": 671.442065311041,
        "timestamp": "2025-12-17T21:39:46.087648+00:00",
        "meta_object_name": "COSMOS 2251 DEB",
        "meta_object_id": "1993-036BVV",
        "meta_epoch": "2025-12-13T21:48:53.616096",
        "meta_mean_motion": 14.67590278,
        "meta_eccentricity": 0.00153774,
        "meta_inclination": 74.0462,
        "meta_ra_of_asc_node": 45.2013,
        "meta_arg_of_pericenter": 149.8992,
        "meta_mean_anomaly": 27.0176,
        "meta_ephemeris_type": 0,
        "meta_classification_type": "U",
        "meta_norad_cat_id": 40792,
        "meta_element_set_no": 999,
        "meta_rev_at_epoch": 63201,
        "meta_bstar": 0.0011407186,
        "meta_mean_motion_dot": 6.465e-05,
        "meta_mean_motion_ddot": 0,
        "tle_line1": "1 40792U 93036BVV 25347.90895389  .00006465  00000+0  11407-2 0  9990",
        "tle_line2": "2 40792  74.0462  45.2013 0015377 149.8992  27.0176 14.67590278632011"
      },
      "geometry": {
        "type": "Point",
        "coordinates": [
          45.85228116437914,
          26.932404613187135
        ]
      }
    },
    {
      "type": "Feature",
      "properties": {
        "norad_id": 40793,
        "name": "COSMOS 2251 DEB",
        "group": "cosmos-2251-debris",
        "lat": -73.25940056585604,
        "lon": 83.28314754667855,
        "alt_km": 753.9317449889495,
        "timestamp": "2025-12-17T21:39:46.087657+00:00",
        "meta_object_name": "COSMOS 2251 DEB",
        "meta_object_id": "1993-036BVW",
        "meta_epoch": "2025-11-17T22:59:08.433600",
        "meta_mean_motion": 14.0559149,
        "meta_eccentricity": 0.02150611,
        "meta_inclination": 73.9793,
        "meta_ra_of_asc_node": 208.5839,
        "meta_arg_of_pericenter": 10.058,
        "meta_mean_anomaly": 350.4754,
        "meta_ephemeris_type": 0,
        "meta_classification_type": "U",
        "meta_norad_cat_id": 40793,
        "meta_element_set_no": 999,
        "meta_rev_at_epoch": 67897,
        "meta_bstar": 0.0015211732,
        "meta_mean_motion_dot": 3.024e-05,
        "meta_mean_motion_ddot": 0,
        "tle_line1": "1 40793U 93036BVW 25321.95773650  .00003024  00000+0  15212-2 0  9990",
        "tle_line2": "2 40793  73.9793 208.5839 0215061  10.0580 350.4754 14.05591490678970"
      },
      "geometry": {
        "type": "Point",
        "coordinates": [
          83.28314754667855,
          -73.25940056585604
        ]
      }
    },
    {
      "type": "Feature",
      "properties": {
        "norad_id": 40794,
        "name": "COSMOS 2251 DEB",
        "group": "cosmos-2251-debris",
        "lat": -3.7642968865095465,
        "lon": -65.09644910086148,
        "alt_km": 587.0744301439445,
        "timestamp": "2025-12-17T21:39:46.087666+00:00",
        "meta_object_name": "COSMOS 2251 DEB",
        "meta_object_id": "1993-036BVX",
        "meta_epoch": "2025-12-13T15:37:41.141568",
        "meta_mean_motion": 14.93159868,
        "meta_eccentricity": 0.00107848,
        "meta_inclination": 73.9763,
        "meta_ra_of_asc_node": 122.399,
        "meta_arg_of_pericenter": 261.0962,
        "meta_mean_anomaly": 116.104,
        "meta_ephemeris_type": 0,
        "meta_classification_type": "U",
        "meta_norad_cat_id": 40794,
        "meta_element_set_no": 999,
        "meta_rev_at_epoch": 61938,
        "meta_bstar": 0.0047306735,
        "meta_mean_motion_dot": 0.00049759,
        "meta_mean_motion_ddot": 0,
        "tle_line1": "1 40794U 93036BVX 25347.65117062  .00049759  00000+0  47307-2 0  9990",
        "tle_line2": "2 40794  73.9763 122.3990 0010784 261.0962 116.1040 14.93159868619387"
      },
      "geometry": {
        "type": "Point",
        "coordinates": [
          -65.09644910086148,
          -3.7642968865095465
        ]
      }
    },
    {
      "type": "Feature",
      "properties": {
        "norad_id": 40796,
        "name": "COSMOS 2251 DEB",
        "group": "cosmos-2251-debris",
        "lat": 9.006483851845115,
        "lon": 134.58151793050826,
        "alt_km": 633.014144273976,
        "timestamp": "2025-12-17T21:39:46.087675+00:00",
        "meta_object_name": "COSMOS 2251 DEB",
        "meta_object_id": "1993-036BVZ",
        "meta_epoch": "2025-12-16T16:32:21.335712",
        "meta_mean_motion": 14.81756941,
        "meta_eccentricity": 0.00560758,
        "meta_inclination": 74.0116,
        "meta_ra_of_asc_node": 134.3763,
        "meta_arg_of_pericenter": 270.3291,
        "meta_mean_anomaly": 108.1026,
        "meta_ephemeris_type": 0,
        "meta_classification_type": "U",
        "meta_norad_cat_id": 40796,
        "meta_element_set_no": 999,
        "meta_rev_at_epoch": 76217,
        "meta_bstar": 0.0007869592,
        "meta_mean_motion_dot": 6.348e-05,
        "meta_mean_motion_ddot": 0,
        "tle_line1": "1 40796U 93036BVZ 25350.68913583  .00006348  00000+0  78696-3 0  9994",
        "tle_line2": "2 40796  74.0116 134.3763 0056075 270.3291 108.1026 14.81756941762178"
      },
      "geometry": {
        "type": "Point",
        "coordinates": [
          134.58151793050826,
          9.006483851845115
        ]
      }
    },
    {
      "type": "Feature",
      "properties": {
        "norad_id": 40797,
        "name": "COSMOS 2251 DEB",
        "group": "cosmos-2251-debris",
        "lat": -73.68427943987092,
        "lon": -15.268108789697203,
        "alt_km": 536.8865196663037,
        "timestamp": "2025-12-17T21:39:46.087685+00:00",
        "meta_object_name": "COSMOS 2251 DEB",
        "meta_object_id": "1993-036BWA",
        "meta_epoch": "2025-12-15T23:59:57.193728",
        "meta_mean_motion": 15.11379927,
        "meta_eccentricity": 0.00719971,
        "meta_inclination": 73.9214,
        "meta_ra_of_asc_node": 88.513,
        "meta_arg_of_pericenter": 359.8432,
        "meta_mean_anomaly": 0.2724,
        "meta_ephemeris_type": 0,
        "meta_classification_type": "U",
        "meta_norad_cat_id": 40797,
        "meta_element_set_no": 999,
        "meta_rev_at_epoch": 64693,
        "meta_bstar": 0.00052373228,
        "meta_mean_motion_dot": 9.374e-05,
        "meta_mean_motion_ddot": 0,
        "tle_line1": "1 40797U 93036BWA 25349.99996752  .00009374  00000+0  52373-3 0  9992",
        "tle_line2": "2 40797  73.9214  88.5130 0071997 359.8432   0.2724 15.11379927646935"
      },
      "geometry": {
        "type": "Point",
        "coordinates": [
          -15.268108789697203,
          -73.68427943987092
        ]
      }
    },
    {
      "type": "Feature",
      "properties": {
        "norad_id": 40799,
        "name": "COSMOS 2251 DEB",
        "group": "cosmos-2251-debris",
        "lat": 2.660741355064036,
        "lon": 88.62075190114672,
        "alt_km": 510.55245693960023,
        "timestamp": "2025-12-17T21:39:46.087694+00:00",
        "meta_object_name": "COSMOS 2251 DEB",
        "meta_object_id": "1993-036BWC",
        "meta_epoch": "2025-12-16T13:34:01.060320",
        "meta_mean_motion": 14.96697184,
        "meta_eccentricity": 0.01191597,
        "meta_inclination": 73.9265,
        "meta_ra_of_asc_node": 90.5746,
        "meta_arg_of_pericenter": 331.7111,
        "meta_mean_anomaly": 27.7633,
        "meta_ephemeris_type": 0,
        "meta_classification_type": "U",
        "meta_norad_cat_id": 40799,
        "meta_element_set_no": 999,
        "meta_rev_at_epoch": 50034,
        "meta_bstar": 0.00030724083,
        "meta_mean_motion_dot": 4.009e-05,
        "meta_mean_motion_ddot": 0,
        "tle_line1": "1 40799U 93036BWC 25350.56529005  .00004009  00000+0  30724-3 0  9998",
        "tle_line2": "2 40799  73.9265  90.5746 0119159 331.7111  27.7633 14.96697184500342"
      },
      "geometry": {
        "type": "Point",
        "coordinates": [
          88.62075190114672,
          2.660741355064036
        ]
      }
    },
    {
      "type": "Feature",
      "properties": {
        "norad_id": 40802,
        "name": "COSMOS 2251 DEB",
        "group": "cosmos-2251-debris",
        "lat": 52.14732101804664,
        "lon": 164.49332743147122,
        "alt_km": 675.5377785544606,
        "timestamp": "2025-12-17T21:39:46.087702+00:00",
        "meta_object_name": "COSMOS 2251 DEB",
        "meta_object_id": "1993-036BWF",
        "meta_epoch": "2025-12-14T04:02:34.779840",
        "meta_mean_motion": 14.7763135,
        "meta_eccentricity": 0.00631025,
        "meta_inclination": 74.0398,
        "meta_ra_of_asc_node": 150.2093,
        "meta_arg_of_pericenter": 248.6873,
        "meta_mean_anomaly": 110.7559,
        "meta_ephemeris_type": 0,
        "meta_classification_type": "U",
        "meta_norad_cat_id": 40802,
        "meta_element_set_no": 999,
        "meta_rev_at_epoch": 64430,
        "meta_bstar": 0.00084362537,
        "meta_mean_motion_dot": 6.208e-05,
        "meta_mean_motion_ddot": 0,
        "tle_line1": "1 40802U 93036BWF 25348.16845810  .00006208  00000+0  84363-3 0  9992",
        "tle_line2": "2 40802  74.0398 150.2093 0063102 248.6873 110.7559 14.77631350644309"
      },
      "geometry": {
        "type": "Point",
        "coordinates": [
          164.49332743147122,
          52.14732101804664
        ]
      }
    }
  ]
}